      2.10          N: GNSS NAV DATA                        RINEX VERSION / TYPE
fic2rin                                 02/05/2021 00:17:22 PGM / RUN BY / DATE
                                                            END OF HEADER
28 21  2  4 16  0  0.0 6.202375516295e-04-5.343281372916e-12 0.000000000000e+00
    1.030000000000e+02 5.978125000000e+01 4.528760069606e-09-1.059581903702e+00
    3.209337592125e-06 1.796648837626e-02 5.543231964111e-06 5.153668319702e+03
    4.032000000000e+05-3.781169652939e-07 2.838688133132e+00 2.980232238770e-08
    9.743744362063e-01 2.838125000000e+02-1.351798002350e+00-8.536427005021e-09
   -1.107188976008e-11 1.000000000000e+00 2.143000000000e+03 0.000000000000e+00
    4.850000000000e+00 0.000000000000e+00-1.117587089539e-08 1.030000000000e+02
    3.960000000000e+05 4.000000000000e+00
28 21  2  4 15 59 44.0 6.202473305166e-04-5.229594535194e-12 0.000000000000e+00
    1.000000000000e+00 5.978125000000e+01 4.529117227341e-09-1.061915774449e+00
    3.209337592125e-06 1.796648674645e-02 5.543231964111e-06 5.153668319702e+03
    4.031840000000e+05-3.781169652939e-07 2.838688258943e+00 2.980232238770e-08
    9.743744376692e-01 2.838125000000e+02-1.351797866299e+00-8.536427005021e-09
   -1.142904749427e-11 1.000000000000e+00 2.143000000000e+03 0.000000000000e+00
    2.400000000000e+00 0.000000000000e+00-1.117587089539e-08 1.000000000000e+00
    3.996600000000e+05 4.000000000000e+00
 1 21  2  4 15 59 44.0 7.677553221583e-04-7.275957614183e-12 0.000000000000e+00
    6.100000000000e+01-3.931250000000e+01 3.766942622566e-09 2.308626997867e+00
   -2.019107341766e-06 1.033375028055e-02 1.032836735249e-05 5.153694295883e+03
    4.031840000000e+05-8.568167686462e-08-1.434879963984e+00-1.732259988785e-07
    9.829119588227e-01 1.910312500000e+02 8.194202792523e-01-7.697820645128e-09
    3.071556514086e-10 1.000000000000e+00 2.143000000000e+03 0.000000000000e+00
    2.400000000000e+00 0.000000000000e+00 4.656612873077e-09 6.100000000000e+01
    4.011600000000e+05 4.000000000000e+00
14 21  2  4 17 29 36.0 9.409757331014e-05 3.637978807092e-12 0.000000000000e+00
    7.100000000000e+01 6.718750000000e+01 4.865202655219e-09 2.772396139347e+00
    3.539025783539e-06 3.229851135984e-04 4.924833774567e-06 5.153742403030e+03
    4.085760000000e+05 5.401670932770e-08 2.790893009291e+00-2.048909664154e-08
    9.586644998130e-01 2.832812500000e+02 2.035006580501e+00-8.472138612865e-09
   -3.571577341961e-12 1.000000000000e+00 2.143000000000e+03 0.000000000000e+00
    2.400000000000e+00 0.000000000000e+00-7.916241884232e-09 7.100000000000e+01
    4.014000000000e+05 4.000000000000e+00
 1 21  2  4 17 59 44.0 7.677027024329e-04-7.275957614183e-12 0.000000000000e+00
    8.000000000000e+01-3.356250000000e+01 3.673724453941e-09-2.924382284215e+00
   -1.765787601471e-06 1.033317856491e-02 1.041404902935e-05 5.153695201874e+03
    4.103840000000e+05 7.450580596924e-09-1.434934447442e+00-4.470348358154e-08
    9.829145701315e-01 1.891250000000e+02 8.194066916692e-01-7.567458072147e-09
    2.700112470522e-10 1.000000000000e+00 2.143000000000e+03 0.000000000000e+00
    2.400000000000e+00 0.000000000000e+00 4.656612873077e-09 8.000000000000e+01
    4.032000000000e+05 4.000000000000e+00
28 21  2  4 17 59 44.0 6.202096119523e-04-5.229594535194e-12 0.000000000000e+00
    1.400000000000e+01 5.640625000000e+01 4.592334146293e-09-1.175674992154e-02
    2.982094883919e-06 1.796552573796e-02 5.200505256653e-06 5.153666252136e+03
    4.103840000000e+05-2.384185791016e-07 2.838626197569e+00-1.471489667892e-07
    9.743745152039e-01 2.904687500000e+02-1.351771741507e+00-8.609287182797e-09
    0.000000000000e+00 1.000000000000e+00 2.143000000000e+03 0.000000000000e+00
    2.400000000000e+00 0.000000000000e+00-1.117587089539e-08 1.400000000000e+01
    4.032000000000e+05 4.000000000000e+00
 2 21  2  4 18  0  0.0-5.733999423683e-04-3.979039320257e-12 0.000000000000e+00
    1.800000000000e+01-5.446875000000e+01 4.117671517547e-09-2.677274831517e+00
   -2.665445208549e-06 2.038429491222e-02 9.195879101753e-06 5.153613859177e+03
    4.104000000000e+05 2.421438694000e-07-1.516464225199e+00 5.587935447693e-08
    9.617014855613e-01 1.995312500000e+02-1.550978495954e+00-7.607816896111e-09
    1.985797002130e-10 1.000000000000e+00 2.143000000000e+03 0.000000000000e+00
    2.400000000000e+00 0.000000000000e+00-1.769512891769e-08 1.800000000000e+01
    4.032000000000e+05 4.000000000000e+00
 5 21  2  4 18  0  0.0-3.280909731984e-05-1.023181539495e-12 0.000000000000e+00
    2.200000000000e+01-1.546875000000e+01 4.773413117531e-09-1.113085241725e-01
   -6.854534149170e-07 5.987210082822e-03 7.329508662224e-06 5.153808437347e+03
    4.104000000000e+05 0.000000000000e+00-4.314870028342e-01 5.960464477539e-08
    9.553403856703e-01 2.354375000000e+02 8.859051748779e-01-8.292845430299e-09
    3.735869899691e-10 1.000000000000e+00 2.143000000000e+03 0.000000000000e+00
    2.400000000000e+00 0.000000000000e+00-1.117587089539e-08 2.200000000000e+01
    4.032000000000e+05 4.000000000000e+00
 3 21  2  4 18  0  0.0-7.427716627717e-05-1.000444171950e-11 0.000000000000e+00
    7.500000000000e+01-1.175000000000e+01 4.501616081807e-09 2.208757694321e+00
   -5.327165126801e-07 3.257132018916e-03 6.895512342453e-06 5.153654504776e+03
    4.104000000000e+05-9.313225746155e-09-3.961445551365e-01-6.891787052155e-08
    9.684195769625e-01 2.495625000000e+02 8.589819918878e-01-8.077122158844e-09
    3.846588797292e-10 1.000000000000e+00 2.143000000000e+03 0.000000000000e+00
    2.400000000000e+00 0.000000000000e+00 1.862645149231e-09 7.500000000000e+01
    4.032000000000e+05 4.000000000000e+00
 4 21  2  4 18  0  0.0-1.778812147677e-04-2.728484105319e-12 0.000000000000e+00
    5.000000000000e+01-2.575000000000e+01 4.717339353262e-09-1.200988229409e+00
   -1.488253474236e-06 1.088519697078e-03 8.590519428253e-06 5.153588577271e+03
    4.104000000000e+05 3.539025783539e-08 6.835828555012e-01 5.774199962616e-08
    9.604397743089e-01 2.111562500000e+02-3.030495968733e+00-8.074622054705e-09
   -1.521491947675e-10 1.000000000000e+00 2.143000000000e+03 0.000000000000e+00
    2.400000000000e+00 0.000000000000e+00-4.190951585770e-09 5.620000000000e+02
    4.032000000000e+05 4.000000000000e+00
10 21  2  4 18  0  0.0-5.434080958366e-05-8.299139153678e-12 0.000000000000e+00
    7.600000000000e+01-7.156250000000e+00 4.546260798582e-09 1.324626626530e+00
   -3.483146429062e-07 6.458682939410e-03 7.204711437225e-06 5.153668960571e+03
    4.104000000000e+05-6.146728992462e-08-3.990755758767e-01 1.080334186554e-07
    9.683183518089e-01 2.444375000000e+02-2.600986940860e+00-8.174626220280e-09
    2.500104139373e-10 1.000000000000e+00 2.143000000000e+03 0.000000000000e+00
    2.400000000000e+00 0.000000000000e+00 2.328306436539e-09 7.600000000000e+01
    4.032000000000e+05 4.000000000000e+00
 9 21  2  4 18  0  0.0-3.197304904461e-04-3.751665644813e-12 0.000000000000e+00
    6.000000000000e+01-2.931250000000e+01 4.932348309248e-09-2.883472186819e-01
   -1.799315214157e-06 1.977518899366e-03 8.543953299522e-06 5.153568521500e+03
    4.104000000000e+05 3.166496753693e-08 6.336551467374e-01 1.862645149231e-08
    9.532880461935e-01 2.117187500000e+02 1.804815058752e+00-8.225342618536e-09
   -1.689356082747e-10 1.000000000000e+00 2.143000000000e+03 0.000000000000e+00
    2.400000000000e+00 0.000000000000e+00 1.396983861923e-09 6.000000000000e+01
    4.032000000000e+05 4.000000000000e+00
 8 21  2  4 18  0  0.0-9.079929441214e-06-1.364242052659e-12 0.000000000000e+00
    6.800000000000e+01-4.284375000000e+01 4.383396871789e-09-7.201216146986e-01
   -2.285465598106e-06 6.191411055624e-03 5.777925252914e-06 5.153787420273e+03
    4.104000000000e+05 3.911554813385e-08-2.508185538761e+00-9.126961231232e-08
    9.683794447309e-01 2.728125000000e+02-2.373004682884e-02-8.222842514396e-09
   -2.875119760278e-10 1.000000000000e+00 2.143000000000e+03 0.000000000000e+00
    2.400000000000e+00 0.000000000000e+00 5.122274160385e-09 6.800000000000e+01
    4.032000000000e+05 4.000000000000e+00
 6 21  2  4 18  0  0.0-3.655906766653e-06 7.958078640513e-13 0.000000000000e+00
    7.000000000000e+01-4.887500000000e+01 3.811230181606e-09-2.565839795652e+00
   -2.468004822731e-06 2.297703060322e-03 9.676441550255e-06 5.153708309174e+03
    4.104000000000e+05 6.891787052155e-08-1.443191335558e+00 3.166496753693e-08
    9.824031164159e-01 2.052187500000e+02-1.093520797073e+00-7.755323040334e-09
    1.775073938955e-10 1.000000000000e+00 2.143000000000e+03 0.000000000000e+00
    2.400000000000e+00 0.000000000000e+00 3.725290298462e-09 7.000000000000e+01
    4.032000000000e+05 4.000000000000e+00
12 21  2  4 18  0  0.0 3.461726009846e-06-5.229594535194e-12 0.000000000000e+00
    4.500000000000e+01 6.371875000000e+01 4.352324148913e-09 2.063981282271e+00
    3.011897206306e-06 8.303705835715e-03 5.673617124557e-06 5.153560537338e+03
    4.104000000000e+05-7.078051567078e-08 2.816244130272e+00-1.490116119385e-07
    9.751694487961e-01 2.741250000000e+02 1.175289678550e+00-8.049621013311e-09
   -5.071639825584e-11 1.000000000000e+00 2.143000000000e+03 0.000000000000e+00
    2.400000000000e+00 0.000000000000e+00-1.257285475731e-08 4.500000000000e+01
    4.032000000000e+05 4.000000000000e+00
 7 21  2  4 18  0  0.0 4.696194082499e-05 1.364242052659e-11 0.000000000000e+00
    6.000000000000e+01 6.740625000000e+01 4.626621288776e-09 2.729344584432e+00
    3.330409526825e-06 1.438973983750e-02 1.109205186367e-05 5.153612319946e+03
    4.104000000000e+05-7.450580596924e-09 1.706783651373e+00-2.197921276093e-07
    9.516965288376e-01 1.602500000000e+02-2.353263018873e+00-7.808896700463e-09
   -6.071681481333e-11 1.000000000000e+00 2.143000000000e+03 0.000000000000e+00
    2.400000000000e+00 0.000000000000e+00-1.117587089539e-08 6.000000000000e+01
    4.032000000000e+05 4.000000000000e+00
